<?xml version="1.0" encoding="utf-8" ?>
<kml xmlns="http://www.opengis.net/kml/2.2">
<Document id="root_doc">
<Schema name="parque_caballero" id="parque_caballero">
	<SimpleField name="id" type="float"></SimpleField>
	<SimpleField name="area_m2" type="float"></SimpleField>
</Schema>
<Folder><name>parque_caballero</name>
  <Placemark id="parque_caballero.1">
	<Style><LineStyle><color>ff0000ff</color></LineStyle><PolyStyle><fill>0</fill></PolyStyle></Style>
	<ExtendedData><SchemaData schemaUrl="#parque_caballero">
		<SimpleData name="id">1</SimpleData>
		<SimpleData name="area_m2">137137.906</SimpleData>
	</SchemaData></ExtendedData>
      <MultiGeometry><Polygon><outerBoundaryIs><LinearRing><coordinates>-57.6220552737041,-25.2801189758528 -57.6219771077802,-25.2800375245171 -57.6218866638629,-25.2799703995336 -57.6217462389197,-25.2799068164607 -57.6214797896048,-25.2798893121832 -57.6212588099508,-25.2799465266307 -57.6210593070587,-25.2800232290785 -57.6210057124193,-25.2799833989651 -57.6209650781457,-25.2800086224159 -57.6208673650035,-25.2800588314 -57.6207896936765,-25.2800744054634 -57.6207093057345,-25.2800061914325 -57.620636228554,-25.2799805039149 -57.6205546401611,-25.2799598535181 -57.6201252456416,-25.279856438448 -57.6199642076231,-25.2799149704693 -57.6198696311996,-25.2799243582504 -57.6195150443727,-25.2799693424079 -57.6194428310653,-25.2799583986785 -57.6192418492804,-25.2798589720129 -57.619208618746,-25.2797114472295 -57.6191609516345,-25.2794997581373 -57.6190042044356,-25.2795131825803 -57.6188590442473,-25.2795844679243 -57.618720093446,-25.2794847926696 -57.618560151937,-25.2794753674945 -57.61836013664,-25.2794652466738 -57.618294478983,-25.2795952373718 -57.6182120226246,-25.2797373260197 -57.6180804356795,-25.279985247677 -57.6180071762241,-25.2800885771956 -57.6178510544429,-25.279998856401 -57.6177786493377,-25.2799764532061 -57.6177542558969,-25.279998837269 -57.6177246297354,-25.2800633313401 -57.6176069159125,-25.2802086566768 -57.6175525639442,-25.2802299282096 -57.617487458108,-25.2802784782051 -57.6174358603428,-25.2803059275973 -57.6173786162147,-25.2802937882603 -57.6173378975998,-25.2803187163294 -57.6173217730269,-25.2803608718954 -57.6173220110796,-25.280407910548 -57.6173165030648,-25.2804511445181 -57.6173060423701,-25.2805009717533 -57.6172994424952,-25.2805218904276 -57.6172493163184,-25.2805818366356 -57.6172179624714,-25.2806193053931 -57.6172976091015,-25.2806976778317 -57.6174082890127,-25.2807764394327 -57.6177116822791,-25.2810017026772 -57.6178744748986,-25.2811545188653 -57.6182189965532,-25.2814353136334 -57.6185239113518,-25.281691515894 -57.6190948943878,-25.2820604867877 -57.6193176771781,-25.282229142099 -57.6193682469732,-25.2822673042634 -57.6194616901736,-25.2823745308623 -57.6196911326271,-25.2826118958806 -57.619963487238,-25.2827905078664 -57.6200568566091,-25.2828635796485 -57.6201973947342,-25.2829184336061 -57.620357772961,-25.2829773623585 -57.6205731189029,-25.2830526931395 -57.6208419505502,-25.2831527486338 -57.6209702507815,-25.2831993366442 -57.6214418101076,-25.2832916071067 -57.6218140495365,-25.2833399389684 -57.621870485392,-25.2833452455763 -57.6218821374344,-25.2832384655918 -57.6218921942567,-25.2831178311761 -57.6219090727495,-25.2830126721498 -57.6219244289335,-25.2829755056201 -57.6219242317048,-25.2829368266236 -57.621966422259,-25.2828676977834 -57.6219922660149,-25.2828574984506 -57.6220049306045,-25.2828019479174 -57.6220212944955,-25.2827463817877 -57.6220396709837,-25.2827227600732 -57.6220432459331,-25.2826983598924 -57.6220450048413,-25.2826347707089 -57.6220435699899,-25.2826071026398 -57.6220877952129,-25.2826096884169 -57.6221166338379,-25.2825846167503 -57.622111805765,-25.2825347369549 -57.6221329722829,-25.2824999948254 -57.6221371145648,-25.2824154243232 -57.622133704959,-25.2823447468159 -57.6221303801973,-25.2822907023347 -57.6221210563546,-25.2822560887628 -57.6220980048101,-25.2822201469536 -57.6220871776758,-25.2821896980633 -57.6221018680246,-25.2819968892082 -57.6222401282505,-25.2819206704444 -57.6222065188337,-25.2818552611729 -57.6222284449551,-25.2818047448639 -57.6223557933163,-25.2817638687023 -57.6223133019431,-25.2816883568628 -57.6221166519564,-25.2813925573937 -57.6220782565706,-25.2813372746487 -57.6221542767557,-25.281296756782 -57.6222710342042,-25.2811729001505 -57.6223573791983,-25.2810644189757 -57.6225215018038,-25.2809611540987 -57.6226127629047,-25.2806211707326 -57.6226442466604,-25.2805170792133 -57.6226210396556,-25.2804506435868 -57.6225383350369,-25.2803761422901 -57.6223504901273,-25.2803117872373 -57.6222221995294,-25.2802665864473 -57.6220552737041,-25.2801189758528</coordinates></LinearRing></outerBoundaryIs></Polygon></MultiGeometry>
  </Placemark>
</Folder>
</Document></kml>
